CCSDS_OMM_VERS = 2.0
CREATION_DATE  = 
ORIGINATOR     = 

OBJECT_NAME    = STARLINK-36159
OBJECT_ID      = 2025-298E
CENTER_NAME    = EARTH
REF_FRAME      = TEME
TIME_SYSTEM    = UTC
MEAN_ELEMENT_THEORY = SGP/SGP4

EPOCH          = 2025-12-21T12:00:02.000160
MEAN_MOTION    = 15.88883677
ECCENTRICITY   = .0004311
INCLINATION    = 69.9983
RA_OF_ASC_NODE = 225.2068
ARG_OF_PERICENTER = 266.9888
MEAN_ANOMALY   = 223.8452

EPHEMERIS_TYPE = 0
CLASSIFICATION_TYPE = U
NORAD_CAT_ID   = 67079
ELEMENT_SET_NO = 999
REV_AT_EPOCH   = 238
BSTAR          = -.46379E-3
MEAN_MOTION_DOT = -.130211E-2
MEAN_MOTION_DDOT = 0

CCSDS_OMM_VERS = 2.0
CREATION_DATE  = 
ORIGINATOR     = 

OBJECT_NAME    = STARLINK-36158
OBJECT_ID      = 2025-298F
CENTER_NAME    = EARTH
REF_FRAME      = TEME
TIME_SYSTEM    = UTC
MEAN_ELEMENT_THEORY = SGP/SGP4

EPOCH          = 2025-12-21T12:00:02.000160
MEAN_MOTION    = 15.88938202
ECCENTRICITY   = .0004474
INCLINATION    = 69.9981
RA_OF_ASC_NODE = 225.2045
ARG_OF_PERICENTER = 266.2049
MEAN_ANOMALY   = 226.5144

EPHEMERIS_TYPE = 0
CLASSIFICATION_TYPE = U
NORAD_CAT_ID   = 67080
ELEMENT_SET_NO = 999
REV_AT_EPOCH   = 232
BSTAR          = -.51904E-3
MEAN_MOTION_DOT = -.145848E-2
MEAN_MOTION_DDOT = 0

CCSDS_OMM_VERS = 2.0
CREATION_DATE  = 
ORIGINATOR     = 

OBJECT_NAME    = STARLINK-35864
OBJECT_ID      = 2025-298G
CENTER_NAME    = EARTH
REF_FRAME      = TEME
TIME_SYSTEM    = UTC
MEAN_ELEMENT_THEORY = SGP/SGP4

EPOCH          = 2025-12-21T12:00:02.000160
MEAN_MOTION    = 15.88990889
ECCENTRICITY   = .0004422
INCLINATION    = 69.9983
RA_OF_ASC_NODE = 225.2024
ARG_OF_PERICENTER = 265.8414
MEAN_ANOMALY   = 228.5577

EPHEMERIS_TYPE = 0
CLASSIFICATION_TYPE = U
NORAD_CAT_ID   = 67081
ELEMENT_SET_NO = 999
REV_AT_EPOCH   = 238
BSTAR          = -.49639E-3
MEAN_MOTION_DOT = -.13995E-2
MEAN_MOTION_DDOT = 0

CCSDS_OMM_VERS = 2.0
CREATION_DATE  = 
ORIGINATOR     = 

OBJECT_NAME    = STARLINK-36035
OBJECT_ID      = 2025-298H
CENTER_NAME    = EARTH
REF_FRAME      = TEME
TIME_SYSTEM    = UTC
MEAN_ELEMENT_THEORY = SGP/SGP4

EPOCH          = 2025-12-21T12:00:02.000160
MEAN_MOTION    = 15.89039813
ECCENTRICITY   = .0004376
INCLINATION    = 69.9982
RA_OF_ASC_NODE = 225.2004
ARG_OF_PERICENTER = 266.4634
MEAN_ANOMALY   = 229.7409

EPHEMERIS_TYPE = 0
CLASSIFICATION_TYPE = U
NORAD_CAT_ID   = 67082
ELEMENT_SET_NO = 999
REV_AT_EPOCH   = 238
BSTAR          = -.51302E-3
MEAN_MOTION_DOT = -.148137E-2
MEAN_MOTION_DDOT = .11022E-4

CCSDS_OMM_VERS = 2.0
CREATION_DATE  = 
ORIGINATOR     = 

OBJECT_NAME    = STARLINK-36170
OBJECT_ID      = 2025-298J
CENTER_NAME    = EARTH
REF_FRAME      = TEME
TIME_SYSTEM    = UTC
MEAN_ELEMENT_THEORY = SGP/SGP4

EPOCH          = 2025-12-21T12:00:02.000160
MEAN_MOTION    = 15.89095913
ECCENTRICITY   = .0004425
INCLINATION    = 69.9980
RA_OF_ASC_NODE = 225.1980
ARG_OF_PERICENTER = 266.0093
MEAN_ANOMALY   = 232.0770

EPHEMERIS_TYPE = 0
CLASSIFICATION_TYPE = U
NORAD_CAT_ID   = 67083
ELEMENT_SET_NO = 999
REV_AT_EPOCH   = 238
BSTAR          = -.51388E-3
MEAN_MOTION_DOT = -.148797E-2
MEAN_MOTION_DDOT = .11091E-4

CCSDS_OMM_VERS = 2.0
CREATION_DATE  = 
ORIGINATOR     = 

OBJECT_NAME    = STARLINK-36166
OBJECT_ID      = 2025-298K
CENTER_NAME    = EARTH
REF_FRAME      = TEME
TIME_SYSTEM    = UTC
MEAN_ELEMENT_THEORY = SGP/SGP4

EPOCH          = 2025-12-21T12:00:02.000160
MEAN_MOTION    = 15.89149339
ECCENTRICITY   = .0004375
INCLINATION    = 69.9979
RA_OF_ASC_NODE = 225.1957
ARG_OF_PERICENTER = 267.2162
MEAN_ANOMALY   = 232.6279

EPHEMERIS_TYPE = 0
CLASSIFICATION_TYPE = U
NORAD_CAT_ID   = 67084
ELEMENT_SET_NO = 999
REV_AT_EPOCH   = 232
BSTAR          = -.52688E-3
MEAN_MOTION_DOT = -.152932E-2
MEAN_MOTION_DDOT = .11499E-4

CCSDS_OMM_VERS = 2.0
CREATION_DATE  = 
ORIGINATOR     = 

OBJECT_NAME    = STARLINK-35794
OBJECT_ID      = 2025-298L
CENTER_NAME    = EARTH
REF_FRAME      = TEME
TIME_SYSTEM    = UTC
MEAN_ELEMENT_THEORY = SGP/SGP4

EPOCH          = 2025-12-21T12:00:02.000160
MEAN_MOTION    = 15.89199621
ECCENTRICITY   = .0004484
INCLINATION    = 69.9980
RA_OF_ASC_NODE = 225.1936
ARG_OF_PERICENTER = 266.7051
MEAN_ANOMALY   = 234.8666

EPHEMERIS_TYPE = 0
CLASSIFICATION_TYPE = U
NORAD_CAT_ID   = 67085
ELEMENT_SET_NO = 999
REV_AT_EPOCH   = 238
BSTAR          = -.55137E-3
MEAN_MOTION_DOT = -.160389E-2
MEAN_MOTION_DDOT = .12258E-4

CCSDS_OMM_VERS = 2.0
CREATION_DATE  = 
ORIGINATOR     = 

OBJECT_NAME    = STARLINK-35841
OBJECT_ID      = 2025-298M
CENTER_NAME    = EARTH
REF_FRAME      = TEME
TIME_SYSTEM    = UTC
MEAN_ELEMENT_THEORY = SGP/SGP4

EPOCH          = 2025-12-21T12:00:02.000160
MEAN_MOTION    = 15.89253235
ECCENTRICITY   = .0004341
INCLINATION    = 69.9979
RA_OF_ASC_NODE = 225.1914
ARG_OF_PERICENTER = 265.3290
MEAN_ANOMALY   = 238.2420

EPHEMERIS_TYPE = 0
CLASSIFICATION_TYPE = U
NORAD_CAT_ID   = 67086
ELEMENT_SET_NO = 999
REV_AT_EPOCH   = 238
BSTAR          = -.54072E-3
MEAN_MOTION_DOT = -.157726E-2
MEAN_MOTION_DDOT = .1199E-4

CCSDS_OMM_VERS = 2.0
CREATION_DATE  = 
ORIGINATOR     = 

OBJECT_NAME    = STARLINK-35842
OBJECT_ID      = 2025-298N
CENTER_NAME    = EARTH
REF_FRAME      = TEME
TIME_SYSTEM    = UTC
MEAN_ELEMENT_THEORY = SGP/SGP4

EPOCH          = 2025-12-21T12:00:02.000160
MEAN_MOTION    = 15.89303516
ECCENTRICITY   = .0004365
INCLINATION    = 69.9979
RA_OF_ASC_NODE = 225.1894
ARG_OF_PERICENTER = 265.5661
MEAN_ANOMALY   = 239.5297

EPHEMERIS_TYPE = 0
CLASSIFICATION_TYPE = U
NORAD_CAT_ID   = 67087
ELEMENT_SET_NO = 999
REV_AT_EPOCH   = 238
BSTAR          = -.55658E-3
MEAN_MOTION_DOT = -.162722E-2
MEAN_MOTION_DDOT = .12512E-4

CCSDS_OMM_VERS = 2.0
CREATION_DATE  = 
ORIGINATOR     = 

OBJECT_NAME    = STARLINK-35882
OBJECT_ID      = 2025-298P
CENTER_NAME    = EARTH
REF_FRAME      = TEME
TIME_SYSTEM    = UTC
MEAN_ELEMENT_THEORY = SGP/SGP4

EPOCH          = 2025-12-21T12:00:02.000160
MEAN_MOTION    = 15.89395283
ECCENTRICITY   = .0003722
INCLINATION    = 69.9981
RA_OF_ASC_NODE = 225.1876
ARG_OF_PERICENTER = 268.7425
MEAN_ANOMALY   = 238.2819

EPHEMERIS_TYPE = 0
CLASSIFICATION_TYPE = U
NORAD_CAT_ID   = 67088
ELEMENT_SET_NO = 999
REV_AT_EPOCH   = 238
BSTAR          = -.48869E-3
MEAN_MOTION_DOT = -.14365E-2
MEAN_MOTION_DDOT = .10628E-4

CCSDS_OMM_VERS = 2.0
CREATION_DATE  = 
ORIGINATOR     = 

OBJECT_NAME    = STARLINK-35763
OBJECT_ID      = 2025-298Q
CENTER_NAME    = EARTH
REF_FRAME      = TEME
TIME_SYSTEM    = UTC
MEAN_ELEMENT_THEORY = SGP/SGP4

EPOCH          = 2025-12-21T12:00:02.000160
MEAN_MOTION    = 15.89447402
ECCENTRICITY   = .0003761
INCLINATION    = 69.9978
RA_OF_ASC_NODE = 225.1849
ARG_OF_PERICENTER = 267.9432
MEAN_ANOMALY   = 241.0587

EPHEMERIS_TYPE = 0
CLASSIFICATION_TYPE = U
NORAD_CAT_ID   = 67089
ELEMENT_SET_NO = 999
REV_AT_EPOCH   = 238
BSTAR          = -.53399E-3
MEAN_MOTION_DOT = -.157257E-2
MEAN_MOTION_DDOT = .11961E-4

CCSDS_OMM_VERS = 2.0
CREATION_DATE  = 
ORIGINATOR     = 

OBJECT_NAME    = STARLINK-36060
OBJECT_ID      = 2025-298R
CENTER_NAME    = EARTH
REF_FRAME      = TEME
TIME_SYSTEM    = UTC
MEAN_ELEMENT_THEORY = SGP/SGP4

EPOCH          = 2025-12-21T12:00:02.000160
MEAN_MOTION    = 15.89496941
ECCENTRICITY   = .0003741
INCLINATION    = 69.9976
RA_OF_ASC_NODE = 225.1827
ARG_OF_PERICENTER = 270.3656
MEAN_ANOMALY   = 240.2319

EPHEMERIS_TYPE = 0
CLASSIFICATION_TYPE = U
NORAD_CAT_ID   = 67090
ELEMENT_SET_NO = 999
REV_AT_EPOCH   = 232
BSTAR          = -.56161E-3
MEAN_MOTION_DOT = -.165735E-2
MEAN_MOTION_DDOT = .12852E-4

CCSDS_OMM_VERS = 2.0
CREATION_DATE  = 
ORIGINATOR     = 

OBJECT_NAME    = STARLINK-36097
OBJECT_ID      = 2025-298S
CENTER_NAME    = EARTH
REF_FRAME      = TEME
TIME_SYSTEM    = UTC
MEAN_ELEMENT_THEORY = SGP/SGP4

EPOCH          = 2025-12-21T12:00:02.000160
MEAN_MOTION    = 15.89548539
ECCENTRICITY   = .0003734
INCLINATION    = 69.9977
RA_OF_ASC_NODE = 225.1805
ARG_OF_PERICENTER = 268.1099
MEAN_ANOMALY   = 244.4286

EPHEMERIS_TYPE = 0
CLASSIFICATION_TYPE = U
NORAD_CAT_ID   = 67091
ELEMENT_SET_NO = 999
REV_AT_EPOCH   = 238
BSTAR          = -.52645E-3
MEAN_MOTION_DOT = -.155838E-2
MEAN_MOTION_DDOT = .11826E-4

CCSDS_OMM_VERS = 2.0
CREATION_DATE  = 
ORIGINATOR     = 

OBJECT_NAME    = STARLINK-35792
OBJECT_ID      = 2025-298T
CENTER_NAME    = EARTH
REF_FRAME      = TEME
TIME_SYSTEM    = UTC
MEAN_ELEMENT_THEORY = SGP/SGP4

EPOCH          = 2025-12-21T12:00:02.000160
MEAN_MOTION    = 15.89595522
ECCENTRICITY   = .0003923
INCLINATION    = 69.9977
RA_OF_ASC_NODE = 225.1786
ARG_OF_PERICENTER = 268.9248
MEAN_ANOMALY   = 245.2191

EPHEMERIS_TYPE = 0
CLASSIFICATION_TYPE = U
NORAD_CAT_ID   = 67092
ELEMENT_SET_NO = 999
REV_AT_EPOCH   = 232
BSTAR          = -.51523E-3
MEAN_MOTION_DOT = -.15291E-2
MEAN_MOTION_DDOT = .11538E-4

CCSDS_OMM_VERS = 2.0
CREATION_DATE  = 
ORIGINATOR     = 

OBJECT_NAME    = STARLINK-35784
OBJECT_ID      = 2025-298U
CENTER_NAME    = EARTH
REF_FRAME      = TEME
TIME_SYSTEM    = UTC
MEAN_ELEMENT_THEORY = SGP/SGP4

EPOCH          = 2025-12-21T12:00:02.000160
MEAN_MOTION    = 15.89642741
ECCENTRICITY   = .0003773
INCLINATION    = 69.9975
RA_OF_ASC_NODE = 225.1762
ARG_OF_PERICENTER = 270.9333
MEAN_ANOMALY   = 244.9697

EPHEMERIS_TYPE = 0
CLASSIFICATION_TYPE = U
NORAD_CAT_ID   = 67093
ELEMENT_SET_NO = 999
REV_AT_EPOCH   = 238
BSTAR          = -.53514E-3
MEAN_MOTION_DOT = -.159137E-2
MEAN_MOTION_DDOT = .12173E-4

